start=new Date('2022-02-14T00:00:00.000Z').valueOf();
sats=[{"OBJECT_TYPE":"PAYLOAD","MEAN_ANOMALY":"300.9570","MEAN_MOTION_DDOT":"0.0000000000000","MEAN_MOTION_DOT":"-0.00002501","OBJECT_NAME":"STARLINK-1094","APOAPSIS":"548.339","REV_AT_EPOCH":"11631","PERIAPSIS":"546.182","TLE_LINE2":"2 44941  53.0544 152.7275 0001557  59.1572 300.9570 15.06384760116317","EPHEMERIS_TYPE":"0","ARG_OF_PERICENTER":"59.1572","REF_FRAME":"TEME","CLASSIFICATION_TYPE":"U","TIME_SYSTEM":"UTC","EPOCH":"2022-02-13T18:14:06.694944","BSTAR":"-0.00014915000000","ECCENTRICITY":"0.00015570","GP_ID":"195900963","DECAY_DATE":null,"INCLINATION":"53.0544","ELEMENT_SET_NO":"999","SEMIMAJOR_AXIS":"6925.395","RA_OF_ASC_NODE":"152.7275","FILE":"3299845","COUNTRY_CODE":"US","NORAD_CAT_ID":"44941","MEAN_MOTION":"15.06384760","PERIOD":"95.593","OBJECT_ID":"2020-001AD","SITE":"AFETR","LAUNCH_DATE":"2020-01-07","CENTER_NAME":"EARTH","MEAN_ELEMENT_THEORY":"SGP4","TLE_LINE1":"1 44941U 20001AD  22044.75979971 -.00002501  00000-0 -14915-3 0  9994","RCS_SIZE":"LARGE"},{"TIME_SYSTEM":"UTC","CLASSIFICATION_TYPE":"U","BSTAR":"-0.00004053700000","EPOCH":"2022-02-13T16:17:19.991040","GP_ID":"195901475","ECCENTRICITY":"0.00013860","DECAY_DATE":null,"INCLINATION":"53.0538","SEMIMAJOR_AXIS":"6925.380","RA_OF_ASC_NODE":"153.0904","ELEMENT_SET_NO":"999","FILE":"3299852","COUNTRY_CODE":"US","NORAD_CAT_ID":"44942","MEAN_MOTION":"15.06389781","PERIOD":"95.593","SITE":"AFETR","OBJECT_ID":"2020-001AE","LAUNCH_DATE":"2020-01-07","CENTER_NAME":"EARTH","TLE_LINE1":"1 44942U 20001AE  22044.67870360 -.00000885  00000-0 -40537-4 0  9991","MEAN_ELEMENT_THEORY":"SGP4","RCS_SIZE":"LARGE","OBJECT_TYPE":"PAYLOAD","MEAN_MOTION_DDOT":"0.0000000000000","MEAN_ANOMALY":"280.8398","MEAN_MOTION_DOT":"-0.00000885","OBJECT_NAME":"STARLINK-1096","APOAPSIS":"548.205","REV_AT_EPOCH":"11630","PERIAPSIS":"546.285","TLE_LINE2":"2 44942  53.0538 153.0904 0001386  79.2747 280.8398 15.06389781116302","ARG_OF_PERICENTER":"79.2747","EPHEMERIS_TYPE":"0","REF_FRAME":"TEME"},{"APOAPSIS":"548.134","OBJECT_NAME":"STARLINK-1100","MEAN_MOTION_DDOT":"0.0000000000000","MEAN_MOTION_DOT":"-0.00001742","MEAN_ANOMALY":"292.5014","OBJECT_TYPE":"PAYLOAD","REF_FRAME":"TEME","TLE_LINE2":"2 44943  53.0544 152.5997 0001321  67.6115 292.5014 15.06398105116311","EPHEMERIS_TYPE":"0","ARG_OF_PERICENTER":"67.6115","PERIAPSIS":"546.305","REV_AT_EPOCH":"11631","INCLINATION":"53.0544","SEMIMAJOR_AXIS":"6925.354","ELEMENT_SET_NO":"999","RA_OF_ASC_NODE":"152.5997","DECAY_DATE":null,"EPOCH":"2022-02-13T18:56:33.521568","BSTAR":"-0.00009810200000","GP_ID":"195900976","ECCENTRICITY":"0.00013210","CLASSIFICATION_TYPE":"U","TIME_SYSTEM":"UTC","RCS_SIZE":"LARGE","CENTER_NAME":"EARTH","LAUNCH_DATE":"2020-01-07","MEAN_ELEMENT_THEORY":"SGP4","TLE_LINE1":"1 44943U 20001AF  22044.78927687 -.00001742  00000-0 -98102-4 0  9993","PERIOD":"95.592","OBJECT_ID":"2020-001AF","SITE":"AFETR","FILE":"3299846","MEAN_MOTION":"15.06398105","COUNTRY_CODE":"US","NORAD_CAT_ID":"44943"},{"DECAY_DATE":null,"SEMIMAJOR_AXIS":"6925.327","RA_OF_ASC_NODE":"152.9766","ELEMENT_SET_NO":"999","INCLINATION":"53.0530","CLASSIFICATION_TYPE":"U","TIME_SYSTEM":"UTC","GP_ID":"195900988","ECCENTRICITY":"0.00014130","EPOCH":"2022-02-13T16:54:27.735552","BSTAR":"0.00014144000000","TLE_LINE1":"1 44944U 20001AG  22044.70448768  .00001826  00000-0  14144-3 0  9998","MEAN_ELEMENT_THEORY":"SGP4","LAUNCH_DATE":"2020-01-07","CENTER_NAME":"EARTH","RCS_SIZE":"LARGE","MEAN_MOTION":"15.06407002","COUNTRY_CODE":"US","NORAD_CAT_ID":"44944","FILE":"3299846","OBJECT_ID":"2020-001AG","SITE":"AFETR","PERIOD":"95.592","OBJECT_NAME":"STARLINK-1108","APOAPSIS":"548.171","OBJECT_TYPE":"PAYLOAD","MEAN_MOTION_DDOT":"0.0000000000000","MEAN_MOTION_DOT":"0.00001826","MEAN_ANOMALY":"296.2104","EPHEMERIS_TYPE":"0","ARG_OF_PERICENTER":"63.9031","TLE_LINE2":"2 44944  53.0530 152.9766 0001413  63.9031 296.2104 15.06407002116300","REF_FRAME":"TEME","PERIAPSIS":"546.214","REV_AT_EPOCH":"11630"},{"PERIOD":"95.593","SITE":"AFETR","OBJECT_ID":"2020-001AH","FILE":"3299685","COUNTRY_CODE":"US","NORAD_CAT_ID":"44945","MEAN_MOTION":"15.06382806","RCS_SIZE":"LARGE","CENTER_NAME":"EARTH","LAUNCH_DATE":"2020-01-07","TLE_LINE1":"1 44945U 20001AH  22044.53495391 -.00004962  00000-0 -31460-3 0  9990","MEAN_ELEMENT_THEORY":"SGP4","BSTAR":"-0.00031460000000","EPOCH":"2022-02-13T12:50:20.017824","GP_ID":"195891980","ECCENTRICITY":"0.00014490","TIME_SYSTEM":"UTC","CLASSIFICATION_TYPE":"U","INCLINATION":"53.0531","ELEMENT_SET_NO":"999","SEMIMAJOR_AXIS":"6925.401","RA_OF_ASC_NODE":"153.7308","DECAY_DATE":null,"PERIAPSIS":"546.263","REV_AT_EPOCH":"11627","REF_FRAME":"TEME","TLE_LINE2":"2 44945  53.0531 153.7308 0001449  70.7833 289.3313 15.06382806116273","ARG_OF_PERICENTER":"70.7833","EPHEMERIS_TYPE":"0","MEAN_MOTION_DOT":"-0.00004962","MEAN_MOTION_DDOT":"0.0000000000000","MEAN_ANOMALY":"289.3313","OBJECT_TYPE":"PAYLOAD","APOAPSIS":"548.270","OBJECT_NAME":"STARLINK-1109"},{"REV_AT_EPOCH":"11634","PERIAPSIS":"534.991","REF_FRAME":"TEME","TLE_LINE2":"2 44946  53.0033 147.2399 0001957 135.1537 224.9611 15.09953465116342","ARG_OF_PERICENTER":"135.1537","EPHEMERIS_TYPE":"0","MEAN_MOTION_DDOT":"0.0000000000000","MEAN_ANOMALY":"224.9611","MEAN_MOTION_DOT":"0.00017406","OBJECT_TYPE":"PAYLOAD","APOAPSIS":"537.697","OBJECT_NAME":"STARLINK-1110","PERIOD":"95.367","SITE":"AFETR","OBJECT_ID":"2020-001AJ","FILE":"3299685","NORAD_CAT_ID":"44946","COUNTRY_CODE":"US","MEAN_MOTION":"15.09953465","RCS_SIZE":"LARGE","CENTER_NAME":"EARTH","LAUNCH_DATE":"2020-01-07","MEAN_ELEMENT_THEORY":"SGP4","TLE_LINE1":"1 44946U 20001AJ  22044.54617761  .00017406  00000-0  10757-2 0  9999","BSTAR":"0.00107570000000","EPOCH":"2022-02-13T13:06:29.745504","ECCENTRICITY":"0.00019570","GP_ID":"195892730","TIME_SYSTEM":"UTC","CLASSIFICATION_TYPE":"U","INCLINATION":"53.0033","SEMIMAJOR_AXIS":"6914.479","ELEMENT_SET_NO":"999","RA_OF_ASC_NODE":"147.2399","DECAY_DATE":null},{"INCLINATION":"53.0539","SEMIMAJOR_AXIS":"6925.368","RA_OF_ASC_NODE":"153.0330","ELEMENT_SET_NO":"999","DECAY_DATE":null,"BSTAR":"-0.00013112000000","EPOCH":"2022-02-13T16:33:15.477408","ECCENTRICITY":"0.00015020","GP_ID":"195900995","TIME_SYSTEM":"UTC","CLASSIFICATION_TYPE":"U","RCS_SIZE":"LARGE","LAUNCH_DATE":"2020-01-07","CENTER_NAME":"EARTH","MEAN_ELEMENT_THEORY":"SGP4","TLE_LINE1":"1 44947U 20001AK  22044.68976247 -.00002234  00000-0 -13112-3 0  9996","PERIOD":"95.593","SITE":"AFETR","OBJECT_ID":"2020-001AK","FILE":"3299847","MEAN_MOTION":"15.06393712","COUNTRY_CODE":"US","NORAD_CAT_ID":"44947","APOAPSIS":"548.273","OBJECT_NAME":"STARLINK-1116","MEAN_MOTION_DOT":"-0.00002234","MEAN_MOTION_DDOT":"0.0000000000000","MEAN_ANOMALY":"295.2940","OBJECT_TYPE":"PAYLOAD","REF_FRAME":"TEME","TLE_LINE2":"2 44947  53.0539 153.0330 0001502  64.8205 295.2940 15.06393712116302","ARG_OF_PERICENTER":"64.8205","EPHEMERIS_TYPE":"0","PERIAPSIS":"546.193","REV_AT_EPOCH":"11630"},{"MEAN_MOTION_DDOT":"0.0000000000000","MEAN_ANOMALY":"291.0429","MEAN_MOTION_DOT":"-0.00001543","OBJECT_TYPE":"PAYLOAD","APOAPSIS":"548.255","OBJECT_NAME":"STARLINK-1122","REV_AT_EPOCH":"11630","PERIAPSIS":"546.147","REF_FRAME":"TEME","EPHEMERIS_TYPE":"0","ARG_OF_PERICENTER":"69.0723","TLE_LINE2":"2 44949  53.0531 152.9326 0001522  69.0723 291.0429 15.06404087116307","ECCENTRICITY":"0.00015220","GP_ID":"195901509","EPOCH":"2022-02-13T17:10:22.961856","BSTAR":"-0.00008470600000","CLASSIFICATION_TYPE":"U","TIME_SYSTEM":"UTC","RA_OF_ASC_NODE":"152.9326","SEMIMAJOR_AXIS":"6925.336","ELEMENT_SET_NO":"999","INCLINATION":"53.0531","DECAY_DATE":null,"OBJECT_ID":"2020-001AM","SITE":"AFETR","PERIOD":"95.592","NORAD_CAT_ID":"44949","COUNTRY_CODE":"US","MEAN_MOTION":"15.06404087","FILE":"3299848","RCS_SIZE":"LARGE","TLE_LINE1":"1 44949U 20001AM  22044.71554354 -.00001543  00000-0 -84706-4 0  9993","MEAN_ELEMENT_THEORY":"SGP4","LAUNCH_DATE":"2020-01-07","CENTER_NAME":"EARTH"},{"REV_AT_EPOCH":"11628","PERIAPSIS":"546.374","EPHEMERIS_TYPE":"0","ARG_OF_PERICENTER":"69.5469","TLE_LINE2":"2 44950  53.0537 153.4553 0001292  69.5469 290.5658 15.06381925116289","REF_FRAME":"TEME","OBJECT_TYPE":"PAYLOAD","MEAN_MOTION_DDOT":"0.0000000000000","MEAN_MOTION_DOT":"-0.00002326","MEAN_ANOMALY":"290.5658","OBJECT_NAME":"STARLINK-1125","APOAPSIS":"548.164","MEAN_MOTION":"15.06381925","COUNTRY_CODE":"US","NORAD_CAT_ID":"44950","FILE":"3299685","OBJECT_ID":"2020-001AN","SITE":"AFETR","PERIOD":"95.593","MEAN_ELEMENT_THEORY":"SGP4","TLE_LINE1":"1 44950U 20001AN  22044.59762565 -.00002326  00000-0 -13736-3 0  9990","LAUNCH_DATE":"2020-01-07","CENTER_NAME":"EARTH","RCS_SIZE":"LARGE","CLASSIFICATION_TYPE":"U","TIME_SYSTEM":"UTC","GP_ID":"195892480","ECCENTRICITY":"0.00012920","EPOCH":"2022-02-13T14:20:34.856160","BSTAR":"-0.00013736000000","DECAY_DATE":null,"SEMIMAJOR_AXIS":"6925.404","RA_OF_ASC_NODE":"153.4553","ELEMENT_SET_NO":"999","INCLINATION":"53.0537"},{"REF_FRAME":"TEME","EPHEMERIS_TYPE":"0","ARG_OF_PERICENTER":"130.8625","TLE_LINE2":"2 44951  53.0030 147.8471 0002055 130.8625 229.2543 15.09797740117628","PERIAPSIS":"535.398","REV_AT_EPOCH":"11762","APOAPSIS":"538.241","OBJECT_NAME":"STARLINK-1126","MEAN_MOTION_DDOT":"0.0000000000000","MEAN_MOTION_DOT":"0.00017608","MEAN_ANOMALY":"229.2543","OBJECT_TYPE":"PAYLOAD","RCS_SIZE":"LARGE","TLE_LINE1":"1 44951U 20001AP  22044.55664418  .00017608  00000-0  10926-2 0  9999","MEAN_ELEMENT_THEORY":"SGP4","CENTER_NAME":"EARTH","LAUNCH_DATE":"2020-01-07","OBJECT_ID":"2020-001AP","SITE":"AFETR","PERIOD":"95.377","COUNTRY_CODE":"US","MEAN_MOTION":"15.09797740","NORAD_CAT_ID":"44951","FILE":"3299685","RA_OF_ASC_NODE":"147.8471","SEMIMAJOR_AXIS":"6914.955","ELEMENT_SET_NO":"999","INCLINATION":"53.0030","DECAY_DATE":null,"ECCENTRICITY":"0.00020550","GP_ID":"195892231","EPOCH":"2022-02-13T13:21:34.057152","BSTAR":"0.00109260000000","CLASSIFICATION_TYPE":"U","TIME_SYSTEM":"UTC"}];
